JY1SAT (JO-97)          
1 43803U 18099AX  26068.68634132  .00017774  00000+0  60804-3 0  9996
2 43803  97.4249 131.3625 0004723 256.6795 103.3919 15.30302628398390
STARLINK-33706          
1 63461U 25070B   26068.56574788  .00033867  00000+0  12348-2 0  9992
2 63461  42.9990 260.8327 0001980 301.9874  58.0785 15.27573082 52957
